start=new Date('2023-01-07T00:00:00.000Z').valueOf();
sats=[{"GP_ID":"222345115","MEAN_ANOMALY":"313.6051","CLASSIFICATION_TYPE":"U","ELEMENT_SET_NO":"999","ECCENTRICITY":"0.00027400","EPOCH":"2023-01-06T20:37:30.313632","BSTAR":"-0.00000178240000","OBJECT_NAME":"STARLINK-3582","SEMIMAJOR_AXIS":"6917.888","CENTER_NAME":"EARTH","MEAN_MOTION_DOT":"-0.00000317","MEAN_MOTION_DDOT":"0.0000000000000","TLE_LINE1":"1 51873U 22022X   23006.85937863 -.00000317  00000-0 -17824-5 0  9992","ARG_OF_PERICENTER":"46.5169","MEAN_ELEMENT_THEORY":"SGP4","RCS_SIZE":"LARGE","TLE_LINE2":"2 51873  53.2162 166.8233 0002740  46.5169 313.6051 15.08837631 48326","EPHEMERIS_TYPE":"0","RA_OF_ASC_NODE":"166.8233","PERIOD":"95.438","LAUNCH_DATE":"2022-03-03","PERIAPSIS":"537.857","REF_FRAME":"TEME","TIME_SYSTEM":"UTC","NORAD_CAT_ID":"51873","APOAPSIS":"541.648","DECAY_DATE":null,"SITE":"AFETR","OBJECT_TYPE":"PAYLOAD","MEAN_MOTION":"15.08837631","OBJECT_ID":"2022-022X","FILE":"3734255","INCLINATION":"53.2162","COUNTRY_CODE":"US","REV_AT_EPOCH":"4832"},{"CENTER_NAME":"EARTH","OBJECT_NAME":"STARLINK-3574","SEMIMAJOR_AXIS":"6917.895","BSTAR":"-0.00008694700000","EPOCH":"2023-01-06T20:48:06.728256","CLASSIFICATION_TYPE":"U","ELEMENT_SET_NO":"999","ECCENTRICITY":"0.00027670","GP_ID":"222344866","MEAN_ANOMALY":"321.2971","FILE":"3734255","INCLINATION":"53.2165","COUNTRY_CODE":"US","REV_AT_EPOCH":"4831","DECAY_DATE":null,"SITE":"AFETR","OBJECT_TYPE":"PAYLOAD","MEAN_MOTION":"15.08835111","OBJECT_ID":"2022-022Y","TIME_SYSTEM":"UTC","NORAD_CAT_ID":"51874","APOAPSIS":"541.675","RA_OF_ASC_NODE":"166.8031","PERIOD":"95.438","LAUNCH_DATE":"2022-03-03","PERIAPSIS":"537.846","REF_FRAME":"TEME","RCS_SIZE":"LARGE","TLE_LINE2":"2 51874  53.2165 166.8031 0002767  38.8220 321.2971 15.08835111 48313","EPHEMERIS_TYPE":"0","ARG_OF_PERICENTER":"38.8220","MEAN_ELEMENT_THEORY":"SGP4","MEAN_MOTION_DOT":"-0.00001672","TLE_LINE1":"1 51874U 22022Y   23006.86674454 -.00001672  00000-0 -86947-4 0  9994","MEAN_MOTION_DDOT":"0.0000000000000"},{"CENTER_NAME":"EARTH","OBJECT_NAME":"STARLINK-3585","SEMIMAJOR_AXIS":"6917.919","BSTAR":"-0.00010982000000","EPOCH":"2023-01-06T20:28:17.458176","ELEMENT_SET_NO":"999","CLASSIFICATION_TYPE":"U","ECCENTRICITY":"0.00020800","GP_ID":"222344114","MEAN_ANOMALY":"310.8828","INCLINATION":"53.2144","FILE":"3734255","REV_AT_EPOCH":"4832","COUNTRY_CODE":"US","OBJECT_TYPE":"PAYLOAD","SITE":"AFETR","MEAN_MOTION":"15.08827509","DECAY_DATE":null,"OBJECT_ID":"2022-022Z","TIME_SYSTEM":"UTC","APOAPSIS":"541.222","NORAD_CAT_ID":"51875","PERIOD":"95.438","LAUNCH_DATE":"2022-03-03","RA_OF_ASC_NODE":"166.8623","REF_FRAME":"TEME","PERIAPSIS":"538.345","RCS_SIZE":"LARGE","EPHEMERIS_TYPE":"0","TLE_LINE2":"2 51875  53.2144 166.8623 0002080  49.2344 310.8828 15.08827509 48327","ARG_OF_PERICENTER":"49.2344","MEAN_ELEMENT_THEORY":"SGP4","MEAN_MOTION_DDOT":"0.0000000000000","TLE_LINE1":"1 51875U 22022Z   23006.85297984 -.00002035  00000-0 -10982-3 0  9992","MEAN_MOTION_DOT":"-0.00002035"},{"TIME_SYSTEM":"UTC","NORAD_CAT_ID":"51876","APOAPSIS":"542.125","RA_OF_ASC_NODE":"166.8047","LAUNCH_DATE":"2022-03-03","PERIOD":"95.437","PERIAPSIS":"537.304","REF_FRAME":"TEME","FILE":"3734255","INCLINATION":"53.2170","COUNTRY_CODE":"US","REV_AT_EPOCH":"4832","DECAY_DATE":null,"SITE":"AFETR","OBJECT_TYPE":"PAYLOAD","MEAN_MOTION":"15.08850068","OBJECT_ID":"2022-022AA","MEAN_MOTION_DOT":"-0.00002496","TLE_LINE1":"1 51876U 22022AA  23006.86305620 -.00002496  00000-0 -13864-3 0  9994","MEAN_MOTION_DDOT":"0.0000000000000","RCS_SIZE":"LARGE","TLE_LINE2":"2 51876  53.2170 166.8047 0003485  45.0766 315.0508 15.08850068 48327","EPHEMERIS_TYPE":"0","ARG_OF_PERICENTER":"45.0766","MEAN_ELEMENT_THEORY":"SGP4","BSTAR":"-0.00013864000000","CENTER_NAME":"EARTH","OBJECT_NAME":"STARLINK-3583","SEMIMAJOR_AXIS":"6917.850","GP_ID":"222344364","MEAN_ANOMALY":"315.0508","EPOCH":"2023-01-06T20:42:48.055680","CLASSIFICATION_TYPE":"U","ELEMENT_SET_NO":"999","ECCENTRICITY":"0.00034850"},{"OBJECT_NAME":"STARLINK-3556","SEMIMAJOR_AXIS":"6917.923","CENTER_NAME":"EARTH","BSTAR":"-0.00020394000000","CLASSIFICATION_TYPE":"U","ELEMENT_SET_NO":"999","ECCENTRICITY":"0.00020760","EPOCH":"2023-01-06T12:20:42.409536","GP_ID":"222314251","MEAN_ANOMALY":"317.5626","DECAY_DATE":null,"MEAN_MOTION":"15.08826015","SITE":"AFETR","OBJECT_TYPE":"PAYLOAD","OBJECT_ID":"2022-022AB","FILE":"3733947","INCLINATION":"53.2166","COUNTRY_CODE":"US","REV_AT_EPOCH":"4840","RA_OF_ASC_NODE":"158.3751","LAUNCH_DATE":"2022-03-03","PERIOD":"95.438","PERIAPSIS":"538.352","REF_FRAME":"TEME","TIME_SYSTEM":"UTC","NORAD_CAT_ID":"51877","APOAPSIS":"541.224","ARG_OF_PERICENTER":"42.5526","MEAN_ELEMENT_THEORY":"SGP4","RCS_SIZE":"LARGE","TLE_LINE2":"2 51877  53.2166 158.3751 0002076  42.5526 317.5626 15.08826015 48404","EPHEMERIS_TYPE":"0","MEAN_MOTION_DOT":"-0.00003531","TLE_LINE1":"1 51877U 22022AB  23006.51437974 -.00003531  00000-0 -20394-3 0  9992","MEAN_MOTION_DDOT":"0.0000000000000"},{"CENTER_NAME":"EARTH","OBJECT_NAME":"STARLINK-3575","SEMIMAJOR_AXIS":"6917.871","BSTAR":"0.00000723610000","EPOCH":"2023-01-06T20:32:11.852736","CLASSIFICATION_TYPE":"U","ELEMENT_SET_NO":"999","ECCENTRICITY":"0.00026130","GP_ID":"222345365","MEAN_ANOMALY":"311.0973","FILE":"3734255","INCLINATION":"53.2135","COUNTRY_CODE":"US","REV_AT_EPOCH":"4832","DECAY_DATE":null,"SITE":"AFETR","MEAN_MOTION":"15.08843000","OBJECT_TYPE":"PAYLOAD","OBJECT_ID":"2022-022AC","TIME_SYSTEM":"UTC","NORAD_CAT_ID":"51878","APOAPSIS":"541.544","RA_OF_ASC_NODE":"166.8518","PERIOD":"95.437","LAUNCH_DATE":"2022-03-03","PERIAPSIS":"537.929","REF_FRAME":"TEME","RCS_SIZE":"MEDIUM","TLE_LINE2":"2 51878  53.2135 166.8518 0002613  49.0245 311.0973 15.08843000 48321","EPHEMERIS_TYPE":"0","ARG_OF_PERICENTER":"49.0245","MEAN_ELEMENT_THEORY":"SGP4","MEAN_MOTION_DOT":"-0.00000173","TLE_LINE1":"1 51878U 22022AC  23006.85569274 -.00000173  00000-0  72361-5 0  9990","MEAN_MOTION_DDOT":"0.0000000000000"},{"BSTAR":"-0.00004448000000","CENTER_NAME":"EARTH","SEMIMAJOR_AXIS":"6917.898","OBJECT_NAME":"STARLINK-3572","MEAN_ANOMALY":"305.6796","GP_ID":"222343615","EPOCH":"2023-01-06T10:34:43.023936","ECCENTRICITY":"0.00018390","CLASSIFICATION_TYPE":"U","ELEMENT_SET_NO":"999","NORAD_CAT_ID":"51879","APOAPSIS":"541.035","TIME_SYSTEM":"UTC","PERIAPSIS":"538.491","REF_FRAME":"TEME","RA_OF_ASC_NODE":"158.7047","PERIOD":"95.438","LAUNCH_DATE":"2022-03-03","REV_AT_EPOCH":"4839","COUNTRY_CODE":"US","FILE":"3734255","INCLINATION":"53.2162","OBJECT_ID":"2022-022AD","DECAY_DATE":null,"SITE":"AFETR","MEAN_MOTION":"15.08834189","OBJECT_TYPE":"PAYLOAD","MEAN_MOTION_DOT":"-0.00000996","MEAN_MOTION_DDOT":"0.0000000000000","TLE_LINE1":"1 51879U 22022AD  23006.44077574 -.00000996  00000-0 -44480-4 0  9997","TLE_LINE2":"2 51879  53.2162 158.7047 0001839  54.4368 305.6796 15.08834189 48391","EPHEMERIS_TYPE":"0","RCS_SIZE":"LARGE","MEAN_ELEMENT_THEORY":"SGP4","ARG_OF_PERICENTER":"54.4368"},{"CENTER_NAME":"EARTH","SEMIMAJOR_AXIS":"6917.898","OBJECT_NAME":"STARLINK-3566","BSTAR":"0.00001454000000","EPOCH":"2023-01-06T19:40:35.900544","ECCENTRICITY":"0.00029910","CLASSIFICATION_TYPE":"U","ELEMENT_SET_NO":"999","MEAN_ANOMALY":"315.7610","GP_ID":"222343865","REV_AT_EPOCH":"4831","COUNTRY_CODE":"US","FILE":"3734255","INCLINATION":"53.2144","OBJECT_ID":"2022-022AE","DECAY_DATE":null,"MEAN_MOTION":"15.08834386","SITE":"AFETR","OBJECT_TYPE":"PAYLOAD","NORAD_CAT_ID":"51880","APOAPSIS":"541.832","TIME_SYSTEM":"UTC","PERIAPSIS":"537.693","REF_FRAME":"TEME","RA_OF_ASC_NODE":"167.0003","LAUNCH_DATE":"2022-03-03","PERIOD":"95.438","TLE_LINE2":"2 51880  53.2144 167.0003 0002991  44.3621 315.7610 15.08834386 48316","EPHEMERIS_TYPE":"0","RCS_SIZE":"LARGE","MEAN_ELEMENT_THEORY":"SGP4","ARG_OF_PERICENTER":"44.3621","MEAN_MOTION_DOT":"-0.00000057","MEAN_MOTION_DDOT":"0.0000000000000","TLE_LINE1":"1 51880U 22022AE  23006.81985996 -.00000057  00000-0  14540-4 0  9997"},{"MEAN_MOTION_DOT":"0.00000651","MEAN_MOTION_DDOT":"0.0000000000000","TLE_LINE1":"1 51881U 22022AF  23005.70477085  .00000651  00000-0  58992-4 0  9998","RCS_SIZE":"LARGE","TLE_LINE2":"2 51881  53.2154 162.0147 0002937  49.0461 311.0785 15.08849928 48338","EPHEMERIS_TYPE":"0","ARG_OF_PERICENTER":"49.0461","MEAN_ELEMENT_THEORY":"SGP4","TIME_SYSTEM":"UTC","NORAD_CAT_ID":"51881","APOAPSIS":"541.747","RA_OF_ASC_NODE":"162.0147","PERIOD":"95.437","LAUNCH_DATE":"2022-03-03","PERIAPSIS":"537.683","REF_FRAME":"TEME","FILE":"3733380","INCLINATION":"53.2154","COUNTRY_CODE":"US","REV_AT_EPOCH":"4833","DECAY_DATE":null,"SITE":"AFETR","MEAN_MOTION":"15.08849928","OBJECT_TYPE":"PAYLOAD","OBJECT_ID":"2022-022AF","GP_ID":"222302137","MEAN_ANOMALY":"311.0785","EPOCH":"2023-01-05T16:54:52.201440","CLASSIFICATION_TYPE":"U","ELEMENT_SET_NO":"999","ECCENTRICITY":"0.00029370","BSTAR":"0.00005899200000","CENTER_NAME":"EARTH","OBJECT_NAME":"STARLINK-3504","SEMIMAJOR_AXIS":"6917.850"},{"EPOCH":"2023-01-06T12:15:25.261056","ECCENTRICITY":"0.00032780","CLASSIFICATION_TYPE":"U","ELEMENT_SET_NO":"999","MEAN_ANOMALY":"317.5321","GP_ID":"222313960","CENTER_NAME":"EARTH","SEMIMAJOR_AXIS":"6917.933","OBJECT_NAME":"STARLINK-3570","BSTAR":"-0.00005597100000","TLE_LINE2":"2 51882  53.2165 158.3791 0003278  42.5925 317.5321 15.08822755 48455","EPHEMERIS_TYPE":"0","RCS_SIZE":"LARGE","MEAN_ELEMENT_THEORY":"SGP4","ARG_OF_PERICENTER":"42.5925","MEAN_MOTION_DOT":"-0.00001179","MEAN_MOTION_DDOT":"0.0000000000000","TLE_LINE1":"1 51882U 22022AG  23006.51070904 -.00001179  00000-0 -55971-4 0  9990","COUNTRY_CODE":"US","REV_AT_EPOCH":"4845","FILE":"3733947","INCLINATION":"53.2165","OBJECT_ID":"2022-022AG","DECAY_DATE":null,"SITE":"AFETR","MEAN_MOTION":"15.08822755","OBJECT_TYPE":"PAYLOAD","NORAD_CAT_ID":"51882","APOAPSIS":"542.066","TIME_SYSTEM":"UTC","PERIAPSIS":"537.530","REF_FRAME":"TEME","RA_OF_ASC_NODE":"158.3791","PERIOD":"95.439","LAUNCH_DATE":"2022-03-03"}];
